{
  "type": "FeatureCollection",
  "features": [
    {
      "type": "Feature",
      "properties": {
        "norad_id": 66639,
        "name": "STARLINK-35908",
        "group": "last-30-days",
        "lat": -1.708330209790066,
        "lon": 131.56331018161637,
        "alt_km": 448.1966417885924,
        "timestamp": "2025-12-24T03:53:28.360296+00:00",
        "meta_object_name": "STARLINK-35908",
        "meta_object_id": "2025-271Y",
        "meta_epoch": "2025-12-23T20:00:01.000224",
        "meta_mean_motion": 15.39571745,
        "meta_eccentricity": 0.0001304,
        "meta_inclination": 53.161,
        "meta_ra_of_asc_node": 134.3941,
        "meta_arg_of_pericenter": 76.8728,
        "meta_mean_anomaly": 257.7515,
        "meta_ephemeris_type": 0,
        "meta_classification_type": "U",
        "meta_norad_cat_id": 66639,
        "meta_element_set_no": 999,
        "meta_rev_at_epoch": 602,
        "meta_bstar": 0.0018876,
        "meta_mean_motion_dot": 0.00075734,
        "meta_mean_motion_ddot": 0,
        "tle_line1": "1 66639U 25271Y   25357.83334491  .00075734  00000+0  18876-2 0  9991",
        "tle_line2": "2 66639  53.1610 134.3941 0001304  76.8728 257.7515 15.39571745  6026"
      },
      "geometry": {
        "type": "Point",
        "coordinates": [
          131.56331018161637,
          -1.708330209790066
        ]
      }
    },
    {
      "type": "Feature",
      "properties": {
        "norad_id": 66640,
        "name": "STARLINK-35921",
        "group": "last-30-days",
        "lat": -40.04138038572423,
        "lon": 93.89550111171236,
        "alt_km": 451.7377505755512,
        "timestamp": "2025-12-24T03:53:28.360306+00:00",
        "meta_object_name": "STARLINK-35921",
        "meta_object_id": "2025-271Z",
        "meta_epoch": "2025-12-23T17:13:03.480096",
        "meta_mean_motion": 15.3963332,
        "meta_eccentricity": 9.51e-05,
        "meta_inclination": 53.161,
        "meta_ra_of_asc_node": 135.0409,
        "meta_arg_of_pericenter": 65.28,
        "meta_mean_anomaly": 294.8303,
        "meta_ephemeris_type": 0,
        "meta_classification_type": "U",
        "meta_norad_cat_id": 66640,
        "meta_element_set_no": 999,
        "meta_rev_at_epoch": 590,
        "meta_bstar": 0.0015457,
        "meta_mean_motion_dot": 0.00061957,
        "meta_mean_motion_ddot": 0,
        "tle_line1": "1 66640U 25271Z   25357.71740139  .00061957  00000+0  15457-2 0  9994",
        "tle_line2": "2 66640  53.1610 135.0409 0000951  65.2800 294.8303 15.39633320  5906"
      },
      "geometry": {
        "type": "Point",
        "coordinates": [
          93.89550111171236,
          -40.04138038572423
        ]
      }
    },
    {
      "type": "Feature",
      "properties": {
        "norad_id": 66641,
        "name": "STARLINK-35923",
        "group": "last-30-days",
        "lat": 50.89608664292035,
        "lon": -114.6455005024462,
        "alt_km": 422.1222602961361,
        "timestamp": "2025-12-24T03:53:28.360317+00:00",
        "meta_object_name": "STARLINK-35923",
        "meta_object_id": "2025-271AA",
        "meta_epoch": "2025-12-23T20:00:01.000224",
        "meta_mean_motion": 15.45542845,
        "meta_eccentricity": 0.0001172,
        "meta_inclination": 53.1604,
        "meta_ra_of_asc_node": 134.1957,
        "meta_arg_of_pericenter": 83.3629,
        "meta_mean_anomaly": 350.2936,
        "meta_ephemeris_type": 0,
        "meta_classification_type": "U",
        "meta_norad_cat_id": 66641,
        "meta_element_set_no": 999,
        "meta_rev_at_epoch": 602,
        "meta_bstar": 0.00073185,
        "meta_mean_motion_dot": 0.00035448,
        "meta_mean_motion_ddot": 0,
        "tle_line1": "1 66641U 25271AA  25357.83334491  .00035448  00000+0  73185-3 0  9997",
        "tle_line2": "2 66641  53.1604 134.1957 0001172  83.3629 350.2936 15.45542845  6025"
      },
      "geometry": {
        "type": "Point",
        "coordinates": [
          -114.6455005024462,
          50.89608664292035
        ]
      }
    },
    {
      "type": "Feature",
      "properties": {
        "norad_id": 66642,
        "name": "STARLINK-35926",
        "group": "last-30-days",
        "lat": 52.39232799704338,
        "lon": -124.07347363937053,
        "alt_km": 431.1565847251213,
        "timestamp": "2025-12-24T03:53:28.360327+00:00",
        "meta_object_name": "STARLINK-35926",
        "meta_object_id": "2025-271AB",
        "meta_epoch": "2025-12-23T20:00:01.000224",
        "meta_mean_motion": 15.43832788,
        "meta_eccentricity": 0.000148,
        "meta_inclination": 53.1601,
        "meta_ra_of_asc_node": 134.2033,
        "meta_arg_of_pericenter": 58.0424,
        "meta_mean_anomaly": 12.4903,
        "meta_ephemeris_type": 0,
        "meta_classification_type": "U",
        "meta_norad_cat_id": 66642,
        "meta_element_set_no": 999,
        "meta_rev_at_epoch": 578,
        "meta_bstar": -0.049478,
        "meta_mean_motion_dot": -0.02027911,
        "meta_mean_motion_ddot": 0,
        "tle_line1": "1 66642U 25271AB  25357.83334491 -.02027911  00000+0 -49478-1 0  9994",
        "tle_line2": "2 66642  53.1601 134.2033 0001480  58.0424  12.4903 15.43832788  5782"
      },
      "geometry": {
        "type": "Point",
        "coordinates": [
          -124.07347363937053,
          52.39232799704338
        ]
      }
    },
    {
      "type": "Feature",
      "properties": {
        "norad_id": 66643,
        "name": "STARLINK-35918",
        "group": "last-30-days",
        "lat": 18.709436946326946,
        "lon": 147.50184493796067,
        "alt_km": 444.95018876889935,
        "timestamp": "2025-12-24T03:53:28.360350+00:00",
        "meta_object_name": "STARLINK-35918",
        "meta_object_id": "2025-271AC",
        "meta_epoch": "2025-12-23T20:00:01.000224",
        "meta_mean_motion": 15.39571269,
        "meta_eccentricity": 0.0001174,
        "meta_inclination": 53.1604,
        "meta_ra_of_asc_node": 134.3431,
        "meta_arg_of_pericenter": 77.9256,
        "meta_mean_anomaly": 282.4543,
        "meta_ephemeris_type": 0,
        "meta_classification_type": "U",
        "meta_norad_cat_id": 66643,
        "meta_element_set_no": 999,
        "meta_rev_at_epoch": 602,
        "meta_bstar": 0.0018461,
        "meta_mean_motion_dot": 0.00074045,
        "meta_mean_motion_ddot": 0,
        "tle_line1": "1 66643U 25271AC  25357.83334491  .00074045  00000+0  18461-2 0  9990",
        "tle_line2": "2 66643  53.1604 134.3431 0001174  77.9256 282.4543 15.39571269  6028"
      },
      "geometry": {
        "type": "Point",
        "coordinates": [
          147.50184493796067,
          18.709436946326946
        ]
      }
    },
    {
      "type": "Feature",
      "properties": {
        "norad_id": 66644,
        "name": "STARLINK-35938",
        "group": "last-30-days",
        "lat": 52.697925237354006,
        "lon": -127.10991576767248,
        "alt_km": 431.2830142018129,
        "timestamp": "2025-12-24T03:53:28.360363+00:00",
        "meta_object_name": "STARLINK-35938",
        "meta_object_id": "2025-271AD",
        "meta_epoch": "2025-12-23T20:00:01.000224",
        "meta_mean_motion": 15.43834976,
        "meta_eccentricity": 0.000102,
        "meta_inclination": 53.16,
        "meta_ra_of_asc_node": 134.2077,
        "meta_arg_of_pericenter": 65.2827,
        "meta_mean_anomaly": 3.3746,
        "meta_ephemeris_type": 0,
        "meta_classification_type": "U",
        "meta_norad_cat_id": 66644,
        "meta_element_set_no": 999,
        "meta_rev_at_epoch": 602,
        "meta_bstar": -0.049101,
        "meta_mean_motion_dot": -0.02014002,
        "meta_mean_motion_ddot": 0,
        "tle_line1": "1 66644U 25271AD  25357.83334491 -.02014002  00000+0 -49101-1 0  9996",
        "tle_line2": "2 66644  53.1600 134.2077 0001020  65.2827   3.3746 15.43834976  6021"
      },
      "geometry": {
        "type": "Point",
        "coordinates": [
          -127.10991576767248,
          52.697925237354006
        ]
      }
    },
    {
      "type": "Feature",
      "properties": {
        "norad_id": 66645,
        "name": "SHENZHOU-22",
        "group": "last-30-days",
        "lat": -41.437058737196374,
        "lon": -144.26078362135493,
        "alt_km": 395.854482614739,
        "timestamp": "2025-12-24T03:53:28.360378+00:00",
        "meta_object_name": "SHENZHOU-22",
        "meta_object_id": "2025-272A",
        "meta_epoch": "2025-12-23T06:45:56.635200",
        "meta_mean_motion": 15.59596422,
        "meta_eccentricity": 0.0007971,
        "meta_inclination": 41.4686,
        "meta_ra_of_asc_node": 312.6856,
        "meta_arg_of_pericenter": 124.3462,
        "meta_mean_anomaly": 235.8132,
        "meta_ephemeris_type": 0,
        "meta_classification_type": "U",
        "meta_norad_cat_id": 66645,
        "meta_element_set_no": 999,
        "meta_rev_at_epoch": 26550,
        "meta_bstar": 0.00022671035,
        "meta_mean_motion_dot": 0.00018298,
        "meta_mean_motion_ddot": 0,
        "tle_line1": "1 66645U 25272A   25357.28190550  .00018298  00000+0  22671-3 0  9995",
        "tle_line2": "2 66645  41.4686 312.6856 0007971 124.3462 235.8132 15.59596422265505"
      },
      "geometry": {
        "type": "Point",
        "coordinates": [
          -144.26078362135493,
          -41.437058737196374
        ]
      }
    }
  ]
}